{"type": "FeatureCollection", "features": [ {"type": "Feature", "properties": {"norad_id": 33939, "name": "COSMOS 2251 DEB", "group": "cosmos-2251-debris", "lat": -73.91718264233367, "lon": -42.66626156268876, "alt_km": 572.1223035919402, "timestamp": "2025-12-26T05:31:12.899644+00:00", "meta": {"OBJECT_NAME": "COSMOS 2251 DEB", "OBJECT_ID": "1993-036EU", "EPOCH": "2025-12-25T13:55:45.725376", "MEAN_MOTION": 15.00770222, "ECCENTRICITY": 0.0005075, "INCLINATION": 74.006, "RA_OF_ASC_NODE": 54.4687, "ARG_OF_PERICENTER": 13.1312, "MEAN_ANOMALY": 347.0006, "EPHEMERIS_TYPE": 0, "CLASSIFICATION_TYPE": "U", "NORAD_CAT_ID": 33939, "ELEMENT_SET_NO": 999, "REV_AT_EPOCH": 88945, "BSTAR": 0.0030021, "MEAN_MOTION_DOT": 0.00038285, "MEAN_MOTION_DDOT": 0}, "tle": {"line1": "1 33939U 93036EU  25359.58039034  .00038285  00000+0  30021-2 0  9997", "line2": "2 33939  74.0060  54.4687 0005075  13.1312 347.0006 15.00770222889458"}}, "geometry": {"type": "Point", "coordinates": [-42.66626156268876, -73.91718264233367]}}, {"type": "Feature", "properties": {"norad_id": 33940, "name": "COSMOS 2251 DEB", "group": "cosmos-2251-debris", "lat": -5.344394833961503, "lon": -60.656396154655376, "alt_km": 692.614500595254, "timestamp": "2025-12-26T05:31:12.899654+00:00", "meta": {"OBJECT_NAME": "COSMOS 2251 DEB", "OBJECT_ID": "1993-036EV", "EPOCH": "2025-12-25T19:30:40.226976", "MEAN_MOTION": 14.58920173, "ECCENTRICITY": 0.00106547, "INCLINATION": 74.0399, "RA_OF_ASC_NODE": 118.6034, "ARG_OF_PERICENTER": 199.4639, "MEAN_ANOMALY": 316.5363, "EPHEMERIS_TYPE": 0, "CLASSIFICATION_TYPE": "U", "NORAD_CAT_ID": 33940, "ELEMENT_SET_NO": 999, "REV_AT_EPOCH": 88784, "BSTAR": 0.001201335, "MEAN_MOTION_DOT": 5.611e-05, "MEAN_MOTION_DDOT": 0}, "tle": {"line1": "1 33940U 93036EV  25359.81296559  .00005611  00000+0  12013-2 0  9990", "line2": "2 33940  74.0399 118.6034 0010654 199.4639 316.5363 14.58920173887845"}}, "geometry": {"type": "Point", "coordinates": [-60.656396154655376, -5.344394833961503]}}, {"type": "Feature", "properties": {"norad_id": 33942, "name": "COSMOS 2251 DEB", "group": "cosmos-2251-debris", "lat": 74.00322334510582, "lon": -16.863311142587804, "alt_km": 765.1026485586899, "timestamp": "2025-12-26T05:31:12.899664+00:00", "meta": {"OBJECT_NAME": "COSMOS 2251 DEB", "OBJECT_ID": "1993-036EX", "EPOCH": "2025-12-25T21:08:14.279712", "MEAN_MOTION": 14.38005775, "ECCENTRICITY": 0.00208343, "INCLINATION": 74.036, "RA_OF_ASC_NODE": 250.6279, "ARG_OF_PERICENTER": 331.5416, "MEAN_ANOMALY": 111.6369, "EPHEMERIS_TYPE": 0, "CLASSIFICATION_TYPE": "U", "NORAD_CAT_ID": 33942, "ELEMENT_SET_NO": 999, "REV_AT_EPOCH": 88323, "BSTAR": 0.00019268459, "MEAN_MOTION_DOT": 5.58e-06, "MEAN_MOTION_DDOT": 0}, "tle": {"line1": "1 33942U 93036EX  25359.88072083  .00000558  00000+0  19268-3 0  9998", "line2": "2 33942  74.0360 250.6279 0020834 331.5416 111.6369 14.38005775883235"}}, "geometry": {"type": "Point", "coordinates": [-16.863311142587804, 74.00322334510582]}}, {"type": "Feature", "properties": {"norad_id": 33944, "name": "COSMOS 2251 DEB", "group": "cosmos-2251-debris", "lat": -62.462974067800864, "lon": -109.18087647824738, "alt_km": 769.6049934039547, "timestamp": "2025-12-26T05:31:12.899674+00:00", "meta": {"OBJECT_NAME": "COSMOS 2251 DEB", "OBJECT_ID": "1993-036EZ", "EPOCH": "2025-12-25T23:31:48.454752", "MEAN_MOTION": 14.37372911, "ECCENTRICITY": 0.01127745, "INCLINATION": 74.0407, "RA_OF_ASC_NODE": 284.566, "ARG_OF_PERICENTER": 20.8089, "MEAN_ANOMALY": 62.2789, "EPHEMERIS_TYPE": 0, "CLASSIFICATION_TYPE": "U", "NORAD_CAT_ID": 33944, "ELEMENT_SET_NO": 999, "REV_AT_EPOCH": 88218, "BSTAR": 0.00036319459, "MEAN_MOTION_DOT": 1.14e-05, "MEAN_MOTION_DDOT": 0}, "tle": {"line1": "1 33944U 93036EZ  25359.98042193  .00001140  00000+0  36319-3 0  9994", "line2": "2 33944  74.0407 284.5660 0112774  20.8089  62.2789 14.37372911882186"}}, "geometry": {"type": "Point", "coordinates": [-109.18087647824738, -62.462974067800864]}}, {"type": "Feature", "properties": {"norad_id": 33945, "name": "COSMOS 2251 DEB", "group": "cosmos-2251-debris", "lat": -44.56925635696058, "lon": -94.83596744067145, "alt_km": 772.5991686003154, "timestamp": "2025-12-26T05:31:12.899684+00:00", "meta": {"OBJECT_NAME": "COSMOS 2251 DEB", "OBJECT_ID": "1993-036FA", "EPOCH": "2025-12-25T21:22:10.305120", "MEAN_MOTION": 14.34610949, "ECCENTRICITY": 0.00224779, "INCLINATION": 74.0303, "RA_OF_ASC_NODE": 282.1707, "ARG_OF_PERICENTER": 5.0726, "MEAN_ANOMALY": 355.0649, "EPHEMERIS_TYPE": 0, "CLASSIFICATION_TYPE": "U", "NORAD_CAT_ID": 33945, "ELEMENT_SET_NO": 999, "REV_AT_EPOCH": 88204, "BSTAR": 0.00013525851, "MEAN_MOTION_DOT": 3.57e-06, "MEAN_MOTION_DDOT": 0}, "tle": {"line1": "1 33945U 93036FA  25359.89039705  .00000357  00000+0  13526-3 0  9994", "line2": "2 33945  74.0303 282.1707 0022477   5.0726 355.0649 14.34610949882047"}}, "geometry": {"type": "Point", "coordinates": [-94.83596744067145, -44.56925635696058]}}, {"type": "Feature", "properties": {"norad_id": 33948, "name": "COSMOS 2251 DEB", "group": "cosmos-2251-debris", "lat": -30.90814656492036, "lon": 110.25058308503505, "alt_km": 791.4837516617808, "timestamp": "2025-12-26T05:31:12.899694+00:00", "meta": {"OBJECT_NAME": "COSMOS 2251 DEB", "OBJECT_ID": "1993-036FD", "EPOCH": "2025-12-25T20:10:19.693344", "MEAN_MOTION": 14.35644343, "ECCENTRICITY": 0.00233076, "INCLINATION": 74.036, "RA_OF_ASC_NODE": 281.0973, "ARG_OF_PERICENTER": 353.8764, "MEAN_ANOMALY": 6.21, "EPHEMERIS_TYPE": 0, "CLASSIFICATION_TYPE": "U", "NORAD_CAT_ID": 33948, "ELEMENT_SET_NO": 999, "REV_AT_EPOCH": 88211, "BSTAR": 0.00020172886, "MEAN_MOTION_DOT": 5.57e-06, "MEAN_MOTION_DDOT": 0}, "tle": {"line1": "1 33948U 93036FD  25359.84050571  .00000557  00000+0  20173-3 0  9994", "line2": "2 33948  74.0360 281.0973 0023307 353.8764   6.2100 14.35644343882116"}}, "geometry": {"type": "Point", "coordinates": [110.25058308503505, -30.90814656492036]}}, {"type": "Feature", "properties": {"norad_id": 33971, "name": "COSMOS 2251 DEB", "group": "cosmos-2251-debris", "lat": 56.97079482100659, "lon": 22.65593111517788, "alt_km": 765.5106098051683, "timestamp": "2025-12-26T05:31:12.899705+00:00", "meta": {"OBJECT_NAME": "COSMOS 2251 DEB", "OBJECT_ID": "1993-036FE", "EPOCH": "2025-12-25T17:35:18.990816", "MEAN_MOTION": 14.39746475, "ECCENTRICITY": 0.00190214, "INCLINATION": 74.0237, "RA_OF_ASC_NODE": 229.7201, "ARG_OF_PERICENTER": 328.1416, "MEAN_ANOMALY": 95.2565, "EPHEMERIS_TYPE": 0, "CLASSIFICATION_TYPE": "U", "NORAD_CAT_ID": 33971, "ELEMENT_SET_NO": 999, "REV_AT_EPOCH": 88326, "BSTAR": 0.00023931833, "MEAN_MOTION_DOT": 7.25e-06, "MEAN_MOTION_DDOT": 0}, "tle": {"line1": "1 33971U 93036FE  25359.73285869  .00000725  00000+0  23932-3 0  9991", "line2": "2 33971  74.0237 229.7201 0019021 328.1416  95.2565 14.39746475883268"}}, "geometry": {"type": "Point", "coordinates": [22.65593111517788, 56.97079482100659]}}, {"type": "Feature", "properties": {"norad_id": 33972, "name": "COSMOS 2251 DEB", "group": "cosmos-2251-debris", "lat": -62.778355566209456, "lon": 19.740589335066918, "alt_km": 765.4167267137118, "timestamp": "2025-12-26T05:31:12.899715+00:00", "meta": {"OBJECT_NAME": "COSMOS 2251 DEB", "OBJECT_ID": "1993-036FF", "EPOCH": "2025-12-22T11:54:25.691616", "MEAN_MOTION": 14.36292058, "ECCENTRICITY": 0.01238157, "INCLINATION": 73.9934, "RA_OF_ASC_NODE": 172.696, "ARG_OF_PERICENTER": 338.2339, "MEAN_ANOMALY": 51.7728, "EPHEMERIS_TYPE": 0, "CLASSIFICATION_TYPE": "U", "NORAD_CAT_ID": 33972, "ELEMENT_SET_NO": 999, "REV_AT_EPOCH": 87214, "BSTAR": 0.0012268858, "MEAN_MOTION_DOT": 3.888e-05, "MEAN_MOTION_DDOT": 0}, "tle": {"line1": "1 33972U 93036FF  25356.49613069  .00003888  00000+0  12269-2 0  9992", "line2": "2 33972  73.9934 172.6960 0123815 338.2339  51.7728 14.36292058872145"}}, "geometry": {"type": "Point", "coordinates": [19.740589335066918, -62.778355566209456]}}, {"type": "Feature", "properties": {"norad_id": 33973, "name": "COSMOS 2251 DEB", "group": "cosmos-2251-debris", "lat": 72.35098750066769, "lon": 142.0393808536519, "alt_km": 766.7077562101504, "timestamp": "2025-12-26T05:31:12.899725+00:00", "meta": {"OBJECT_NAME": "COSMOS 2251 DEB", "OBJECT_ID": "1993-036FG", "EPOCH": "2025-12-25T16:24:44.444736", "MEAN_MOTION": 14.45404582, "ECCENTRICITY": 0.00473739, "INCLINATION": 74.0087, "RA_OF_ASC_NODE": 78.7251, "ARG_OF_PERICENTER": 254.7784, "MEAN_ANOMALY": 226.9895, "EPHEMERIS_TYPE": 0, "CLASSIFICATION_TYPE": "U", "NORAD_CAT_ID": 33973, "ELEMENT_SET_NO": 999, "REV_AT_EPOCH": 88787, "BSTAR": 0.0001550993, "MEAN_MOTION_DOT": 5.25e-06, "MEAN_MOTION_DDOT": 0}, "tle": {"line1": "1 33973U 93036FG  25359.68384774  .00000525  00000+0  15510-3 0  9993", "line2": "2 33973  74.0087  78.7251 0047373 254.7784 226.9895 14.45404582887870"}}, "geometry": {"type": "Point", "coordinates": [142.0393808536519, 72.35098750066769]}}, {"type": "Feature", "properties": {"norad_id": 33975, "name": "COSMOS 2251 DEB", "group": "cosmos-2251-debris", "lat": 7.273745034764824, "lon": 62.86595435539367, "alt_km": 1031.8751901937867, "timestamp": "2025-12-26T05:31:12.899735+00:00", "meta": {"OBJECT_NAME": "COSMOS 2251 DEB", "OBJECT_ID": "1993-036FJ", "EPOCH": "2025-12-25T10:37:32.062080", "MEAN_MOTION": 14.00548928, "ECCENTRICITY": 0.0190823, "INCLINATION": 73.8015, "RA_OF_ASC_NODE": 62.1231, "ARG_OF_PERICENTER": 193.0479, "MEAN_ANOMALY": 166.5681, "EPHEMERIS_TYPE": 0, "CLASSIFICATION_TYPE": "U", "NORAD_CAT_ID": 33975, "ELEMENT_SET_NO": 999, "REV_AT_EPOCH": 86007, "BSTAR": 0.00050069, "MEAN_MOTION_DOT": 8.45e-06, "MEAN_MOTION_DDOT": 0}, "tle": {"line1": "1 33975U 93036FJ  25359.44273220  .00000845  00000+0  50069-3 0  9995", "line2": "2 33975  73.8015  62.1231 0190823 193.0479 166.5681 14.00548928860079"}}, "geometry": {"type": "Point", "coordinates": [62.86595435539367, 7.273745034764824]}}]}